{"fetched_at":"2026-03-29T02:12:04Z","count":15717,"tles":[{"name":"STARLINK-33982","line1":"1 63707U 25087L   26087.51868527  .00022512  00000+0  76975-3 0  9998","line2":"2 63707  53.1604 132.0059 0001411  81.6708 278.4453 15.30205926 52082","category":"Starlink"}]}